{
  "norad_id": 67569,
  "name": "STARLINK-36575",
  "history": [
    {
      "epoch": "2026-04-11T01:39:12.015648Z",
      "apogee_km": 420.6213760113642,
      "perigee_km": 417.43894234743766,
      "latitude_deg": 8.411895048757291e-06,
      "longitude_deg": -61.347843793817695,
      "height_km": 422.262130676598,
      "semi_major_axis_km": 6797.167159179401,
      "eccentricity": 0.0002341,
      "inclination_deg": 97.2848,
      "raan_deg": 162.7459,
      "arg_perigee_deg": 93.692,
      "mean_anomaly_deg": 266.4599,
      "mean_motion_rev_day": 15.49211943
    },
    {
      "epoch": "2026-04-12T16:24:31.782816Z",
      "apogee_km": 420.51205993186977,
      "perigee_km": 417.6543726085456,
      "latitude_deg": 4.369022198693451e-05,
      "longitude_deg": 77.35825526921616,
      "height_km": 422.0566164913332,
      "semi_major_axis_km": 6797.220216270207,
      "eccentricity": 0.00021021,
      "inclination_deg": 97.2851,
      "raan_deg": 164.376,
      "arg_perigee_deg": 83.7138,
      "mean_anomaly_deg": 276.4353,
      "mean_motion_rev_day": 15.49193804
    },
    {
      "epoch": "2026-04-14T14:54:54.571680Z",
      "apogee_km": 419.76123529358574,
      "perigee_km": 418.39091713742073,
      "latitude_deg": 2.6930337438379327e-05,
      "longitude_deg": 99.80745804923777,
      "height_km": 422.3343353557524,
      "semi_major_axis_km": 6797.213076215503,
      "eccentricity": 0.0001008,
      "inclination_deg": 97.2857,
      "raan_deg": 166.3301,
      "arg_perigee_deg": 100.6391,
      "mean_anomaly_deg": 259.4974,
      "mean_motion_rev_day": 15.49196245
    },
    {
      "epoch": "2026-04-15T17:16:07.451616Z",
      "apogee_km": 419.71802342453066,
      "perigee_km": 418.3844150959112,
      "latitude_deg": 7.052620697374334e-05,
      "longitude_deg": 64.53158513490904,
      "height_km": 422.0831687797014,
      "semi_major_axis_km": 6797.188219260221,
      "eccentricity": 9.81e-05,
      "inclination_deg": 97.2878,
      "raan_deg": 167.4402,
      "arg_perigee_deg": 81.3973,
      "mean_anomaly_deg": 278.739,
      "mean_motion_rev_day": 15.49204743
    },
    {
      "epoch": "2026-04-16T14:58:18.274368Z",
      "apogee_km": 419.6641248547685,
      "perigee_km": 418.36858742508866,
      "latitude_deg": 6.800876097373355e-05,
      "longitude_deg": 99.00668160214309,
      "height_km": 422.12528690197774,
      "semi_major_axis_km": 6797.153356139928,
      "eccentricity": 9.53e-05,
      "inclination_deg": 97.2842,
      "raan_deg": 168.3517,
      "arg_perigee_deg": 87.9718,
      "mean_anomaly_deg": 272.1643,
      "mean_motion_rev_day": 15.49216662
    },
    {
      "epoch": "2026-04-17T21:58:33.536352Z",
      "apogee_km": 419.54038359501646,
      "perigee_km": 418.55683083765234,
      "latitude_deg": 1.1463494493839553e-05,
      "longitude_deg": -6.025899908189017,
      "height_km": 422.48174762157186,
      "semi_major_axis_km": 6797.185607216335,
      "eccentricity": 7.235e-05,
      "inclination_deg": 97.2829,
      "raan_deg": 169.656,
      "arg_perigee_deg": 127.677,
      "mean_anomaly_deg": 232.4547,
      "mean_motion_rev_day": 15.49205636
    },
    {
      "epoch": "2026-04-18T15:01:42.314880Z",
      "apogee_km": 420.29114698211924,
      "perigee_km": 417.606298121711,
      "latitude_deg": 1.2063421810802733e-06,
      "longitude_deg": 98.20440552415381,
      "height_km": 422.17354120790503,
      "semi_major_axis_km": 6797.085722551915,
      "eccentricity": 0.0001975,
      "inclination_deg": 97.2827,
      "raan_deg": 170.3732,
      "arg_perigee_deg": 94.0394,
      "mean_anomaly_deg": 266.1083,
      "mean_motion_rev_day": 15.49239785
    },
    {
      "epoch": "2026-04-19T17:22:55.715808Z",
      "apogee_km": 419.9919162194219,
      "perigee_km": 418.0737548918278,
      "latitude_deg": 1.0815273687526378e-05,
      "longitude_deg": 62.92295726560381,
      "height_km": 421.886592743632,
      "semi_major_axis_km": 6797.169835555625,
      "eccentricity": 0.0001411,
      "inclination_deg": 97.2797,
      "raan_deg": 171.4799,
      "arg_perigee_deg": 73.1805,
      "mean_anomaly_deg": 286.9601,
      "mean_motion_rev_day": 15.49211028
    },
    {
      "epoch": "2026-04-20T10:26:04.260192Z",
      "apogee_km": 420.7930438598687,
      "perigee_km": 417.21557244656105,
      "latitude_deg": -4.9467776982584296e-05,
      "longitude_deg": 167.15574592375089,
      "height_km": 422.21130882903265,
      "semi_major_axis_km": 6797.141308153215,
      "eccentricity": 0.00026316,
      "inclination_deg": 97.2809,
      "raan_deg": 172.1986,
      "arg_perigee_deg": 92.496,
      "mean_anomaly_deg": 267.6592,
      "mean_motion_rev_day": 15.49220781
    },
    {
      "epoch": "2026-04-21T15:53:18.687840Z",
      "apogee_km": 419.8788569092576,
      "perigee_km": 418.16461347624227,
      "latitude_deg": -2.9567514494414496e-05,
      "longitude_deg": 85.37519210143628,
      "height_km": 421.9225930053738,
      "semi_major_axis_km": 6797.15873519275,
      "eccentricity": 0.0001261,
      "inclination_deg": 97.2855,
      "raan_deg": 173.4378,
      "arg_perigee_deg": 74.3999,
      "mean_anomaly_deg": 285.7391,
      "mean_motion_rev_day": 15.49214823
    },
    {
      "epoch": "2026-04-22T20:00:03.000384Z",
      "apogee_km": 433.36093123718,
      "perigee_km": 431.65418371107626,
      "latitude_deg": 38.310861844269304,
      "longitude_deg": 17.952771745268787,
      "height_km": 437.3572518006815,
      "semi_major_axis_km": 6810.644557474127,
      "eccentricity": 0.0001253,
      "inclination_deg": 97.2846,
      "raan_deg": 174.6186,
      "arg_perigee_deg": 83.4925,
      "mean_anomaly_deg": 315.1121,
      "mean_motion_rev_day": 15.44615679
    }
  ]
}